[{"OBJECT_NAME":"ONEWEB-0633","OBJECT_ID":"2023-043AE","EPOCH":"2026-03-09T19:58:29.720352","MEAN_MOTION":13.15547864,"ECCENTRICITY":0.00019829,"INCLINATION":87.8947,"RA_OF_ASC_NODE":279.0207,"ARG_OF_PERICENTER":96.8679,"MEAN_ANOMALY":263.2677,"EPHEMERIS_TYPE":0,"CLASSIFICATION_TYPE":"U","NORAD_CAT_ID":56074,"ELEMENT_SET_NO":999,"REV_AT_EPOCH":14334,"BSTAR":-0.00014128451,"MEAN_MOTION_DOT":-4.0e-7,"MEAN_MOTION_DDOT":0},{"OBJECT_NAME":"CZ-4C R\/B","OBJECT_ID":"2009-072C","EPOCH":"2026-03-09T22:46:59.894976","MEAN_MOTION":13.46231136,"ECCENTRICITY":0.01569604,"INCLINATION":100.5126,"RA_OF_ASC_NODE":93.9284,"ARG_OF_PERICENTER":182.9065,"MEAN_ANOMALY":239.8284,"EPHEMERIS_TYPE":0,"CLASSIFICATION_TYPE":"U","NORAD_CAT_ID":36123,"ELEMENT_SET_NO":999,"REV_AT_EPOCH":79755,"BSTAR":0.00011437348,"MEAN_MOTION_DOT":2.5e-7,"MEAN_MOTION_DDOT":0}]
